start=new Date('2022-11-16T00:00:00.000Z').valueOf();
sats=[{"SITE":"AFETR","REV_AT_EPOCH":"1024","TLE_LINE2":"2 53798  53.2177 304.6262 0001426  48.1131 323.1804 15.25604537 10249","FILE":"3657938","RA_OF_ASC_NODE":"304.6262","BSTAR":"-0.04837800000000","DECAY_DATE":null,"NORAD_CAT_ID":"53798","EPOCH":"2022-11-16T00:00:00.999648","MEAN_ANOMALY":"323.1804","MEAN_MOTION_DOT":"-0.01149540","GP_ID":"217882101","ELEMENT_SET_NO":"999","COUNTRY_CODE":"US","CENTER_NAME":"EARTH","OBJECT_TYPE":"PAYLOAD","REF_FRAME":"TEME","TIME_SYSTEM":"UTC","PERIAPSIS":"487.993","APOAPSIS":"489.952","ARG_OF_PERICENTER":"48.1131","ECCENTRICITY":"0.00014260","TLE_LINE1":"1 53798U 22111AB  22320.00001157 -.01149540  00000-0 -48378-1 0  9999","INCLINATION":"53.2177","EPHEMERIS_TYPE":"0","CLASSIFICATION_TYPE":"U","MEAN_ELEMENT_THEORY":"SGP4","OBJECT_ID":"2022-111AB","PERIOD":"94.389","LAUNCH_DATE":"2022-09-11","RCS_SIZE":"LARGE","OBJECT_NAME":"STARLINK-4712","MEAN_MOTION":"15.25604537","SEMIMAJOR_AXIS":"6867.108","MEAN_MOTION_DDOT":"0.0000000000000"},{"MEAN_ELEMENT_THEORY":"SGP4","CLASSIFICATION_TYPE":"U","EPHEMERIS_TYPE":"0","INCLINATION":"53.2174","TLE_LINE1":"1 53799U 22111AC  22319.91667824 -.01116615  00000-0 -97026-2 0  9999","ECCENTRICITY":"0.00068490","ARG_OF_PERICENTER":"270.2373","MEAN_MOTION_DDOT":"0.0000000000000","SEMIMAJOR_AXIS":"6733.870","MEAN_MOTION":"15.71106831","RCS_SIZE":"LARGE","OBJECT_NAME":"STARLINK-4710","LAUNCH_DATE":"2022-09-11","PERIOD":"91.655","OBJECT_ID":"2022-111AC","EPOCH":"2022-11-15T22:00:00.999936","MEAN_ANOMALY":"110.1792","NORAD_CAT_ID":"53799","DECAY_DATE":null,"BSTAR":"-0.00970260000000","RA_OF_ASC_NODE":"301.1766","TLE_LINE2":"2 53799  53.2174 301.1766 0006849 270.2373 110.1792 15.71106831  1300","FILE":"3657961","REV_AT_EPOCH":"130","SITE":"AFETR","APOAPSIS":"360.347","PERIAPSIS":"351.122","REF_FRAME":"TEME","TIME_SYSTEM":"UTC","OBJECT_TYPE":"PAYLOAD","ELEMENT_SET_NO":"999","COUNTRY_CODE":"US","CENTER_NAME":"EARTH","GP_ID":"217908346","MEAN_MOTION_DOT":"-0.01116615"},{"DECAY_DATE":null,"MEAN_ANOMALY":"220.9414","EPOCH":"2022-11-16T00:00:00.999648","NORAD_CAT_ID":"53800","BSTAR":"-0.01011500000000","TLE_LINE2":"2 53800  53.2176 300.7674 0005027 270.1993 220.9414 15.70850675 10292","FILE":"3657946","RA_OF_ASC_NODE":"300.7674","SITE":"AFETR","REV_AT_EPOCH":"1029","APOAPSIS":"359.852","PERIAPSIS":"353.081","REF_FRAME":"TEME","TIME_SYSTEM":"UTC","COUNTRY_CODE":"US","ELEMENT_SET_NO":"999","CENTER_NAME":"EARTH","GP_ID":"217882386","OBJECT_TYPE":"PAYLOAD","MEAN_MOTION_DOT":"-0.01146410","MEAN_ELEMENT_THEORY":"SGP4","INCLINATION":"53.2176","CLASSIFICATION_TYPE":"U","EPHEMERIS_TYPE":"0","ECCENTRICITY":"0.00050270","ARG_OF_PERICENTER":"270.1993","TLE_LINE1":"1 53800U 22111AD  22320.00001157 -.01146410  00000-0 -10115-1 0  9994","MEAN_MOTION_DDOT":"0.0000000000000","SEMIMAJOR_AXIS":"6734.602","MEAN_MOTION":"15.70850675","RCS_SIZE":"LARGE","OBJECT_NAME":"STARLINK-4720","LAUNCH_DATE":"2022-09-11","OBJECT_ID":"2022-111AD","PERIOD":"91.670"},{"OBJECT_NAME":"STARLINK-4715","RCS_SIZE":"LARGE","LAUNCH_DATE":"2022-09-11","OBJECT_ID":"2022-111AE","PERIOD":"91.647","MEAN_MOTION_DDOT":"0.0000000000000","SEMIMAJOR_AXIS":"6733.466","MEAN_MOTION":"15.71248193","ECCENTRICITY":"0.00069810","ARG_OF_PERICENTER":"270.9168","TLE_LINE1":"1 53801U 22111AE  22319.91667824 -.01116852  00000-0 -96458-2 0  9994","MEAN_ELEMENT_THEORY":"SGP4","INCLINATION":"53.2174","EPHEMERIS_TYPE":"0","CLASSIFICATION_TYPE":"U","COUNTRY_CODE":"US","ELEMENT_SET_NO":"999","CENTER_NAME":"EARTH","GP_ID":"217908516","OBJECT_TYPE":"PAYLOAD","MEAN_MOTION_DOT":"-0.01116852","APOAPSIS":"360.031","PERIAPSIS":"350.630","REF_FRAME":"TEME","TIME_SYSTEM":"UTC","TLE_LINE2":"2 53801  53.2174 301.1734 0006981 270.9168 111.1168 15.71248193  1301","RA_OF_ASC_NODE":"301.1734","FILE":"3657961","SITE":"AFETR","REV_AT_EPOCH":"130","DECAY_DATE":null,"MEAN_ANOMALY":"111.1168","EPOCH":"2022-11-15T22:00:00.999936","NORAD_CAT_ID":"53801","BSTAR":"-0.00964580000000"},{"OBJECT_TYPE":"PAYLOAD","GP_ID":"217907693","COUNTRY_CODE":"US","ELEMENT_SET_NO":"999","CENTER_NAME":"EARTH","MEAN_MOTION_DOT":"-0.01117148","PERIAPSIS":"350.886","APOAPSIS":"360.187","REF_FRAME":"TEME","TIME_SYSTEM":"UTC","RA_OF_ASC_NODE":"301.1747","TLE_LINE2":"2 53802  53.2174 301.1747 0006907 270.3943 110.8296 15.71176145  1304","FILE":"3657961","REV_AT_EPOCH":"130","SITE":"AFETR","NORAD_CAT_ID":"53802","MEAN_ANOMALY":"110.8296","EPOCH":"2022-11-15T22:00:00.999936","DECAY_DATE":null,"BSTAR":"-0.00967880000000","LAUNCH_DATE":"2022-09-11","OBJECT_NAME":"STARLINK-4726","RCS_SIZE":"LARGE","PERIOD":"91.651","OBJECT_ID":"2022-111AF","MEAN_MOTION_DDOT":"0.0000000000000","MEAN_MOTION":"15.71176145","SEMIMAJOR_AXIS":"6733.671","TLE_LINE1":"1 53802U 22111AF  22319.91667824 -.01117148  00000-0 -96788-2 0  9990","ARG_OF_PERICENTER":"270.3943","ECCENTRICITY":"0.00069070","MEAN_ELEMENT_THEORY":"SGP4","EPHEMERIS_TYPE":"0","CLASSIFICATION_TYPE":"U","INCLINATION":"53.2174"},{"OBJECT_TYPE":"PAYLOAD","COUNTRY_CODE":"US","ELEMENT_SET_NO":"999","CENTER_NAME":"EARTH","GP_ID":"217908035","MEAN_MOTION_DOT":"0.00025902","APOAPSIS":"352.256","PERIAPSIS":"347.145","REF_FRAME":"TEME","TIME_SYSTEM":"UTC","TLE_LINE2":"2 53803  53.2137 301.1684 0003798   4.9388  21.2081 15.73220881  1309","FILE":"3657961","RA_OF_ASC_NODE":"301.1684","REV_AT_EPOCH":"130","SITE":"AFETR","MEAN_ANOMALY":"21.2081","EPOCH":"2022-11-15T22:00:00.999936","NORAD_CAT_ID":"53803","DECAY_DATE":null,"BSTAR":"0.00018819000000","OBJECT_NAME":"STARLINK-4727","RCS_SIZE":"LARGE","LAUNCH_DATE":"2022-09-11","PERIOD":"91.532","OBJECT_ID":"2022-111AG","MEAN_MOTION_DDOT":"0.0000000000000","SEMIMAJOR_AXIS":"6727.836","MEAN_MOTION":"15.73220881","TLE_LINE1":"1 53803U 22111AG  22319.91667824  .00025902  00000-0  18819-3 0  9994","ECCENTRICITY":"0.00037980","ARG_OF_PERICENTER":"4.9388","MEAN_ELEMENT_THEORY":"SGP4","EPHEMERIS_TYPE":"0","CLASSIFICATION_TYPE":"U","INCLINATION":"53.2137"},{"NORAD_CAT_ID":"53804","EPOCH":"2022-11-15T22:00:00.999936","MEAN_ANOMALY":"19.9532","DECAY_DATE":null,"BSTAR":"0.00048180000000","TLE_LINE2":"2 53804  53.2143 301.1727 0003702   5.6152  19.9532 15.73198018  1308","FILE":"3657961","RA_OF_ASC_NODE":"301.1727","REV_AT_EPOCH":"130","SITE":"AFETR","PERIAPSIS":"347.275","APOAPSIS":"352.256","REF_FRAME":"TEME","TIME_SYSTEM":"UTC","OBJECT_TYPE":"PAYLOAD","GP_ID":"217907499","COUNTRY_CODE":"US","CENTER_NAME":"EARTH","ELEMENT_SET_NO":"999","MEAN_MOTION_DOT":"0.00067555","MEAN_ELEMENT_THEORY":"SGP4","CLASSIFICATION_TYPE":"U","EPHEMERIS_TYPE":"0","INCLINATION":"53.2143","TLE_LINE1":"1 53804U 22111AH  22319.91667824  .00067555  00000-0  48180-3 0  9999","ARG_OF_PERICENTER":"5.6152","ECCENTRICITY":"0.00037020","MEAN_MOTION_DDOT":"0.0000000000000","MEAN_MOTION":"15.73198018","SEMIMAJOR_AXIS":"6727.901","LAUNCH_DATE":"2022-09-11","RCS_SIZE":"LARGE","OBJECT_NAME":"STARLINK-4729","PERIOD":"91.533","OBJECT_ID":"2022-111AH"},{"INCLINATION":"53.2140","CLASSIFICATION_TYPE":"U","EPHEMERIS_TYPE":"0","MEAN_ELEMENT_THEORY":"SGP4","ECCENTRICITY":"0.00037900","ARG_OF_PERICENTER":"9.0404","TLE_LINE1":"1 53805U 22111AJ  22320.00001157  .00022477  00000-0  16406-3 0  9993","SEMIMAJOR_AXIS":"6727.877","MEAN_MOTION":"15.73206505","MEAN_MOTION_DDOT":"0.0000000000000","OBJECT_ID":"2022-111AJ","PERIOD":"91.533","RCS_SIZE":"LARGE","OBJECT_NAME":"STARLINK-4763","LAUNCH_DATE":"2022-09-11","BSTAR":"0.00016406000000","DECAY_DATE":null,"EPOCH":"2022-11-16T00:00:00.999648","MEAN_ANOMALY":"129.9085","NORAD_CAT_ID":"53805","SITE":"AFETR","REV_AT_EPOCH":"1029","RA_OF_ASC_NODE":"300.7554","TLE_LINE2":"2 53805  53.2140 300.7554 0003790   9.0404 129.9085 15.73206505 10298","FILE":"3657938","REF_FRAME":"TEME","TIME_SYSTEM":"UTC","APOAPSIS":"352.291","PERIAPSIS":"347.192","MEAN_MOTION_DOT":"0.00022477","COUNTRY_CODE":"US","CENTER_NAME":"EARTH","ELEMENT_SET_NO":"999","GP_ID":"217882300","OBJECT_TYPE":"PAYLOAD"},{"SITE":"AFETR","REV_AT_EPOCH":"130","RA_OF_ASC_NODE":"301.1691","TLE_LINE2":"2 53806  53.2135 301.1691 0003683   2.3622  24.9671 15.73184451  1301","FILE":"3657961","BSTAR":"0.00047463000000","DECAY_DATE":null,"MEAN_ANOMALY":"24.9671","EPOCH":"2022-11-15T22:00:00.999936","NORAD_CAT_ID":"53806","MEAN_MOTION_DOT":"0.00066493","COUNTRY_CODE":"US","ELEMENT_SET_NO":"999","CENTER_NAME":"EARTH","GP_ID":"217907330","OBJECT_TYPE":"PAYLOAD","REF_FRAME":"TEME","TIME_SYSTEM":"UTC","APOAPSIS":"352.282","PERIAPSIS":"347.327","ECCENTRICITY":"0.00036830","ARG_OF_PERICENTER":"2.3622","TLE_LINE1":"1 53806U 22111AK  22319.91667824  .00066493  00000-0  47463-3 0  9994","INCLINATION":"53.2135","CLASSIFICATION_TYPE":"U","EPHEMERIS_TYPE":"0","MEAN_ELEMENT_THEORY":"SGP4","OBJECT_ID":"2022-111AK","PERIOD":"91.534","RCS_SIZE":"LARGE","OBJECT_NAME":"STARLINK-4768","LAUNCH_DATE":"2022-09-11","SEMIMAJOR_AXIS":"6727.940","MEAN_MOTION":"15.73184451","MEAN_MOTION_DDOT":"0.0000000000000"},{"TLE_LINE1":"1 53818U 22114A   22320.00001157 -.01136456  00000-0 -47760-1 0  9991","ARG_OF_PERICENTER":"53.3304","ECCENTRICITY":"0.00016050","CLASSIFICATION_TYPE":"U","EPHEMERIS_TYPE":"0","INCLINATION":"53.2174","MEAN_ELEMENT_THEORY":"SGP4","PERIOD":"94.359","OBJECT_ID":"2022-114A","LAUNCH_DATE":"2022-09-19","OBJECT_NAME":"STARLINK-4749","RCS_SIZE":"LARGE","MEAN_MOTION":"15.26090914","SEMIMAJOR_AXIS":"6865.649","MEAN_MOTION_DDOT":"0.0000000000000","REV_AT_EPOCH":"965","SITE":"AFETR","RA_OF_ASC_NODE":"335.3059","TLE_LINE2":"2 53818  53.2174 335.3059 0001605  53.3304 160.3368 15.26090914  9651","FILE":"3657947","BSTAR":"-0.04776000000000","NORAD_CAT_ID":"53818","EPOCH":"2022-11-16T00:00:00.999648","MEAN_ANOMALY":"160.3368","DECAY_DATE":null,"MEAN_MOTION_DOT":"-0.01136456","OBJECT_TYPE":"PAYLOAD","GP_ID":"217882502","COUNTRY_CODE":"US","ELEMENT_SET_NO":"999","CENTER_NAME":"EARTH","REF_FRAME":"TEME","TIME_SYSTEM":"UTC","PERIAPSIS":"486.412","APOAPSIS":"488.616"}];
